     2.11           N: GPS NAV DATA                         RINEX VERSION / TYPE
teqc  2018Dec12     gpsops              20220203 01:04:08UTCPGM / RUN BY / DATE
Linux 2.6.32-573.12.1.x86_64|x86_64|gcc -static|Linux 64|=+ COMMENT
CHPI                                    MARKER NAME         COMMENT
41609M003                               MARKER NUMBER       COMMENT
4164613.9484 -4162456.9866 -2445028.7316                    COMMENT
                                                            COMMENT
This data is provided as a public service by NASA/JPL.      COMMENT
No warranty is expressed or implied regarding suitability   COMMENT
for use.  For further information, contact:                 COMMENT
Dave Stowers, NASA/JPL m/s 238-600                          COMMENT
4800 Oak Grove Drive, Pasadena CA 91109 USA                 COMMENT
                                                            END OF HEADER
12 22  2  2 10  0  0.0-1.649325713515D-04-5.684341886081D-12 0.000000000000D+00
    1.300000000000D+01-3.543750000000D+01 4.456971365033D-09-1.832008041871D+00
   -1.801177859306D-06 8.644907502457D-03 7.893890142441D-06 5.153601640701D+03
    2.952000000000D+05 2.067536115646D-07 2.587227659434D+00 5.587935447693D-09
    9.705148121232D-01 2.312500000000D+02 1.240476123198D+00-7.859970256453D-09
   -6.453840256923D-10 1.000000000000D+00 2.195000000000D+03 0.000000000000D+00
    2.000000000000D+00 0.000000000000D+00-1.257285475731D-08 1.300000000000D+01
    2.880180000000D+05 4.000000000000D+00
20 22  2  2 10  0  0.0 5.168905481696D-04-2.273736754432D-13 0.000000000000D+00
    6.100000000000D+01-9.896875000000D+01 5.392010313158D-09 5.233832945922D-01
   -5.144625902176D-06 5.232761614025D-03 1.821666955948D-06 5.153738430023D+03
    2.952000000000D+05 7.823109626770D-08-7.796003645016D-01 6.332993507385D-08
    9.416273558618D-01 3.358125000000D+02 3.121667520634D+00-8.835010870809D-09
   -2.892977646988D-10 1.000000000000D+00 2.195000000000D+03 0.000000000000D+00
    2.000000000000D+00 0.000000000000D+00-8.381903171539D-09 6.100000000000D+01
    2.880180000000D+05 4.000000000000D+00
29 22  2  2  9 59 44.0-4.751044325531D-04-4.774847184308D-12 0.000000000000D+00
    2.800000000000D+01 8.853125000000D+01 3.655866567231D-09 1.830547691213D+00
    4.671514034271D-06 1.798327197321D-03 1.226738095284D-05 5.153761037827D+03
    2.951840000000D+05 1.676380634308D-08-2.646147359482D+00 8.195638656616D-08
    9.822801201155D-01 1.542500000000D+02 2.268894767500D+00-7.523170513106D-09
    3.535861568541D-11 1.000000000000D+00 2.195000000000D+03 0.000000000000D+00
    2.000000000000D+00 0.000000000000D+00-1.024454832077D-08 2.800000000000D+01
    2.880180000000D+05 4.000000000000D+00
15 22  2  2 10  0  0.0-8.692778646946D-05 2.842170943040D-12 0.000000000000D+00
    7.400000000000D+01-8.290625000000D+01 5.088426239092D-09 7.656465383773D-01
   -4.036352038383D-06 1.391721982509D-02 1.226365566254D-05 5.153740699768D+03
    2.952000000000D+05-1.657754182816D-07 2.967532425180D-01 8.009374141693D-08
    9.303448956849D-01 1.324687500000D+02 1.073534932536D+00-8.398921277355D-09
    2.535819912792D-11 1.000000000000D+00 2.195000000000D+03 0.000000000000D+00
    2.800000000000D+00 0.000000000000D+00-1.071020960808D-08 7.400000000000D+01
    2.880180000000D+05 4.000000000000D+00
28 22  2  2 10  0  0.0 4.092063754797D-04-8.185452315956D-12 0.000000000000D+00
    5.000000000000D+00-3.459375000000D+01 4.325537318849D-09 2.155688266578D+00
   -1.801177859306D-06 1.688727794681D-02 8.240342140198D-06 5.153692083359D+03
    2.952000000000D+05 2.793967723846D-07 2.609310325917D+00 6.146728992462D-08
    9.696310486823D-01 2.214062500000D+02-1.289672372922D+00-7.587458905262D-09
   -7.343163015072D-10 1.000000000000D+00 2.195000000000D+03 0.000000000000D+00
    2.000000000000D+00 6.300000000000D+01-1.117587089539D-08 5.000000000000D+00
    2.880180000000D+05 4.000000000000D+00
25 22  2  2 10  0  0.0 2.797320485115D-04 5.456968210638D-12 0.000000000000D+00
    4.500000000000D+01-4.478125000000D+01 4.721982403806D-09-2.077432454132D+00
   -2.302229404449D-06 1.045934506692D-02 7.033348083496D-06 5.153709600449D+03
    2.952000000000D+05 1.080334186554D-07 2.510678450647D+00-1.210719347000D-07
    9.578764902121D-01 2.409687500000D+02 9.756329509828D-01-7.980689570612D-09
   -5.289506043444D-10 1.000000000000D+00 2.195000000000D+03 0.000000000000D+00
    2.000000000000D+00 0.000000000000D+00 5.587935447693D-09 4.500000000000D+01
    2.880180000000D+05 4.000000000000D+00
19 22  2  2 10  0  0.0 1.135859638453D-04 5.002220859751D-12 0.000000000000D+00
    3.000000000000D+01 1.241250000000D+02 3.667295614725D-09-2.201438640561D+00
    6.649643182755D-06 8.949408889748D-03 1.261010766029D-05 5.153688694000D+03
    2.952000000000D+05 1.862645149231D-09-2.614248846232D+00 1.545995473862D-07
    9.790034747386D-01 1.409687500000D+02 2.003100932600D+00-7.511384307878D-09
    8.678932940965D-11 1.000000000000D+00 2.195000000000D+03 0.000000000000D+00
    2.000000000000D+00 0.000000000000D+00-1.583248376846D-08 3.000000000000D+01
    2.880180000000D+05 4.000000000000D+00
13 22  2  2 10  0  0.0 2.551050856709D-04 6.139089236967D-12 0.000000000000D+00
    4.500000000000D+01-5.212500000000D+01 4.115171413407D-09 1.178853655667D+00
   -2.549961209297D-06 5.792494979687D-03 1.301243901253D-05 5.153684848785D+03
    2.952000000000D+05-8.009374141693D-08 5.549941645004D-01 1.043081283569D-07
    9.688358634682D-01 1.338437500000D+02 9.648544646213D-01-7.786395763209D-09
    3.635865734116D-10 1.000000000000D+00 2.195000000000D+03 0.000000000000D+00
    2.000000000000D+00 0.000000000000D+00-1.117587089539D-08 4.500000000000D+01
    2.880180000000D+05 4.000000000000D+00
 5 22  2  2 10  0  0.0-7.001683115959D-05-1.364242052659D-12 0.000000000000D+00
    2.900000000000D+01-1.215625000000D+02 4.841630244762D-09 2.138698133499D+00
   -6.377696990967D-06 5.867136409506D-03 2.985820174217D-06 5.153662090302D+03
    2.952000000000D+05-2.235174179077D-08-6.658095770242D-01-7.264316082001D-08
    9.595118526858D-01 3.238437500000D+02 1.012897601354D+00-8.426779580622D-09
   -3.396570052205D-10 1.000000000000D+00 2.195000000000D+03 0.000000000000D+00
    2.000000000000D+00 0.000000000000D+00-1.117587089539D-08 2.900000000000D+01
    2.880180000000D+05 4.000000000000D+00
15 22  2  2  9 59 44.0-8.692732080817D-05 2.842170943040D-12 0.000000000000D+00
    5.000000000000D+00-8.290625000000D+01 5.088426239092D-09 7.633129909357D-01
   -4.036352038383D-06 1.391721842811D-02 1.226179301739D-05 5.153740697861D+03
    2.951840000000D+05-1.657754182816D-07 2.967533888098D-01 8.009374141693D-08
    9.303448869074D-01 1.324687500000D+02 1.073534885723D+00-8.399278435089D-09
    2.535819912792D-11 1.000000000000D+00 2.195000000000D+03 0.000000000000D+00
    2.000000000000D+00 0.000000000000D+00-1.071020960808D-08 5.000000000000D+00
    2.912160000000D+05 4.000000000000D+00
 2 22  2  2  9 59 44.0-6.500533781946D-04-7.958078640513D-13 0.000000000000D+00
    5.000000000000D+00 1.057812500000D+02 4.809486048684D-09-3.595558387496D-01
    5.384907126427D-06 2.067860262468D-02 3.829598426819D-06 5.153682146072D+03
    2.951840000000D+05-3.129243850708D-07-1.750272396431D+00 1.676380634308D-08
    9.648633547745D-01 3.135937500000D+02-1.448142606667D+00-8.818224457301D-09
    5.250218692682D-10 1.000000000000D+00 2.195000000000D+03 0.000000000000D+00
    2.000000000000D+00 0.000000000000D+00-1.769512891769D-08 5.000000000000D+00
    2.914560000000D+05 4.000000000000D+00
18 22  2  2 10  0  0.0 2.486640587449D-04-7.844391802792D-12 0.000000000000D+00
    4.000000000000D+01 9.268750000000D+01 4.554475426468D-09-3.113850638778D-01
    4.865229129791D-06 2.095273113810D-03 2.210959792137D-06 5.153622903824D+03
    2.952000000000D+05-1.117587089539D-08-1.653222049711D+00 1.862645149231D-08
    9.702957328262D-01 3.400312500000D+02 3.104690493838D+00-8.393206753608D-09
    3.810873023872D-10 1.000000000000D+00 2.195000000000D+03 0.000000000000D+00
    2.000000000000D+00 0.000000000000D+00-8.381903171539D-09 2.960000000000D+02
    2.917860000000D+05 4.000000000000D+00
31 22  2  2 10  0  0.0-1.628277823329D-04-1.818989403546D-12 0.000000000000D+00
    6.300000000000D+01 3.637500000000D+01 5.017709007721D-09-1.628606650713D+00
    1.793727278709D-06 1.045796275139D-02 5.749985575676D-06 5.153674898148D+03
    2.952000000000D+05 5.029141902924D-08 1.492388223114D+00-1.154839992523D-07
    9.547717991521D-01 2.652812500000D+02 3.726993999003D-01-8.254629552740D-09
    4.832344143673D-10 1.000000000000D+00 2.195000000000D+03 0.000000000000D+00
    2.000000000000D+00 0.000000000000D+00-1.350417733192D-08 6.300000000000D+01
    2.943360000000D+05 4.000000000000D+00
12 22  2  2 12  0  0.0-1.649735495448D-04-5.684341886081D-12 0.000000000000D+00
    1.400000000000D+01-3.256250000000D+01 4.584833833875D-09-7.818206659918D-01
   -1.659616827965D-06 8.644994697534D-03 8.074566721916D-06 5.153601078033D+03
    3.024000000000D+05-2.607703208923D-08 2.587170299879D+00 1.266598701477D-07
    9.705088873050D-01 2.296562500000D+02 1.240514033257D+00-8.113195089998D-09
   -6.753852753648D-10 1.000000000000D+00 2.195000000000D+03 0.000000000000D+00
    2.000000000000D+00 0.000000000000D+00-1.257285475731D-08 1.400000000000D+01
    2.952180000000D+05 4.000000000000D+00
25 22  2  2 12  0  0.0 2.797716297209D-04 5.456968210638D-12 0.000000000000D+00
    4.600000000000D+01-3.568750000000D+01 4.921633577222D-09-1.027389902753D+00
   -1.817941665649D-06 1.045949268155D-02 7.092952728271D-06 5.153707237244D+03
    3.024000000000D+05 1.378357410431D-07 2.510621134979D+00 2.197921276093D-07
    9.578710262130D-01 2.399687500000D+02 9.757517662634D-01-8.271773123981D-09
   -6.750281176306D-10 1.000000000000D+00 2.195000000000D+03 0.000000000000D+00
    2.000000000000D+00 0.000000000000D+00 5.587935447693D-09 4.600000000000D+01
    2.952180000000D+05 4.000000000000D+00
